[{"OBJECT_NAME":"LYNK TOWER 3","OBJECT_ID":"2023-001AP","EPOCH":"2026-03-09T16:30:02.373408","MEAN_MOTION":15.34026505,"ECCENTRICITY":0.00098594,"INCLINATION":97.3321,"RA_OF_ASC_NODE":129.5399,"ARG_OF_PERICENTER":112.8813,"MEAN_ANOMALY":247.3472,"EPHEMERIS_TYPE":0,"CLASSIFICATION_TYPE":"U","NORAD_CAT_ID":55046,"ELEMENT_SET_NO":999,"REV_AT_EPOCH":17664,"BSTAR":0.00042323634,"MEAN_MOTION_DOT":0.00013886,"MEAN_MOTION_DDOT":0},{"OBJECT_NAME":"STARLINK-35531","OBJECT_ID":"2025-236AC","EPOCH":"2026-03-09T11:30:39.663936","MEAN_MOTION":15.30192173,"ECCENTRICITY":0.00014919,"INCLINATION":53.1595,"RA_OF_ASC_NODE":104.76,"ARG_OF_PERICENTER":76.8145,"MEAN_ANOMALY":283.3022,"EPHEMERIS_TYPE":0,"CLASSIFICATION_TYPE":"U","NORAD_CAT_ID":66112,"ELEMENT_SET_NO":999,"REV_AT_EPOCH":2291,"BSTAR":0.00093900161,"MEAN_MOTION_DOT":0.00027548,"MEAN_MOTION_DDOT":0}]
