LYNK TOWER 3            
1 55046U 23001AP  26068.68752747  .00013886  00000+0  42324-3 0  9997
2 55046  97.3321 129.5399 0009859 112.8813 247.3472 15.34026505176644
STARLINK-35531          
1 66112U 25236AC  26068.47962574  .00027548  00000+0  93900-3 0  9999
2 66112  53.1595 104.7600 0001491  76.8145 283.3022 15.30192173 22916
